{
  "type": "FeatureCollection",
  "features": [
    {
      "type": "Feature",
      "properties": {
        "road_id": "RD001",
        "road_name": "Jalan Penghubung Asemrowo-Benowo",
        "type": "Kolektor"
      },
      "geometry": {
        "type": "LineString",
        "coordinates": [
          [
            112.71525804999999,
            -7.252032450000001
          ],
          [
            112.71613354113384,
            -7.252445538814555
          ]
        ]
      }
    },
    {
      "type": "Feature",
      "properties": {
        "road_id": "RD002",
        "road_name": "Jalan Penghubung Benowo-Bubutan",
        "type": "Kolektor"
      },
      "geometry": {
        "type": "LineString",
        "coordinates": [
          [
            112.6354085,
            -7.24878885
          ],
          [
            112.63492409027036,
            -7.248532298951449
          ]
        ]
      }
    },
    {
      "type": "Feature",
      "properties": {
        "road_id": "RD003",
        "road_name": "Jalan Penghubung Bubutan-Bulak",
        "type": "Kolektor"
      },
      "geometry": {
        "type": "LineString",
        "coordinates": [
          [
            112.73431351304598,
            -7.251396479108736
          ],
          [
            112.7344157306835,
            -7.251037463210675
          ]
        ]
      }
    },
    {
      "type": "Feature",
      "properties": {
        "road_id": "RD004",
        "road_name": "Jalan Penghubung Bulak-Dukuh Pakis",
        "type": "Kolektor"
      },
      "geometry": {
        "type": "LineString",
        "coordinates": [
          [
            112.7854941,
            -7.23163555
          ],
          [
            112.7854022637797,
            -7.2318669160348295
          ]
        ]
      }
    },
    {
      "type": "Feature",
      "properties": {
        "road_id": "RD005",
        "road_name": "Jalan Penghubung Dukuh Pakis-Gayungan",
        "type": "Kolektor"
      },
      "geometry": {
        "type": "LineString",
        "coordinates": [
          [
            112.70814545,
            -7.2820999
          ],
          [
            112.70861371801988,
            -7.282811808793246
          ]
        ]
      }
    },
    {
      "type": "Feature",
      "properties": {
        "road_id": "RD006",
        "road_name": "Jalan Penghubung Gayungan-Genteng",
        "type": "Kolektor"
      },
      "geometry": {
        "type": "LineString",
        "coordinates": [
          [
            112.78618565222655,
            -7.23185048388541
          ],
          [
            112.78574492964965,
            -7.232486241964489
          ]
        ]
      }
    },
    {
      "type": "Feature",
      "properties": {
        "road_id": "RD007",
        "road_name": "Jalan Penghubung Genteng-Gubeng",
        "type": "Kolektor"
      },
      "geometry": {
        "type": "LineString",
        "coordinates": [
          [
            112.74246705,
            -7.26684075
          ],
          [
            112.74295789186347,
            -7.2669710181251475
          ]
        ]
      }
    },
    {
      "type": "Feature",
      "properties": {
        "road_id": "RD008",
        "road_name": "Jalan Penghubung Gubeng-Gunung Anyar",
        "type": "Kolektor"
      },
      "geometry": {
        "type": "LineString",
        "coordinates": [
          [
            112.76131964999999,
            -7.2979732
          ],
          [
            112.76168934333157,
            -7.2987864705099295
          ]
        ]
      }
    },
    {
      "type": "Feature",
      "properties": {
        "road_id": "RD009",
        "road_name": "Jalan Penghubung Gunung Anyar-Jambangan",
        "type": "Kolektor"
      },
      "geometry": {
        "type": "LineString",
        "coordinates": [
          [
            112.79252115,
            -7.3384485999999995
          ],
          [
            112.79810377728839,
            -7.337825799150903
          ]
        ]
      }
    },
    {
      "type": "Feature",
      "properties": {
        "road_id": "RD010",
        "road_name": "Jalan Penghubung Jambangan-Karang Pilang",
        "type": "Kolektor"
      },
      "geometry": {
        "type": "LineString",
        "coordinates": [
          [
            112.7138846,
            -7.3219039
          ],
          [
            112.71416078516732,
            -7.321984533009334
          ]
        ]
      }
    },
    {
      "type": "Feature",
      "properties": {
        "road_id": "RD011",
        "road_name": "Jalan Penghubung Karang Pilang-Kenjeran",
        "type": "Kolektor"
      },
      "geometry": {
        "type": "LineString",
        "coordinates": [
          [
            112.69938429999999,
            -7.3333987
          ],
          [
            112.69854218026197,
            -7.33356448372812
          ]
        ]
      }
    },
    {
      "type": "Feature",
      "properties": {
        "road_id": "RD012",
        "road_name": "Jalan Penghubung Kenjeran-Krembangan",
        "type": "Kolektor"
      },
      "geometry": {
        "type": "LineString",
        "coordinates": [
          [
            112.71409818629667,
            -7.322820771923497
          ],
          [
            112.71322146148631,
            -7.320915665204842
          ]
        ]
      }
    },
    {
      "type": "Feature",
      "properties": {
        "road_id": "RD013",
        "road_name": "Jalan Penghubung Krembangan-Lakarsantri",
        "type": "Kolektor"
      },
      "geometry": {
        "type": "LineString",
        "coordinates": [
          [
            112.7226026,
            -7.2329093
          ],
          [
            112.72273446586492,
            -7.233211546462716
          ]
        ]
      }
    },
    {
      "type": "Feature",
      "properties": {
        "road_id": "RD014",
        "road_name": "Jalan Penghubung Lakarsantri-Mulyorejo",
        "type": "Kolektor"
      },
      "geometry": {
        "type": "LineString",
        "coordinates": [
          [
            112.6329854,
            -7.304299250000001
          ],
          [
            112.63344007276343,
            -7.305160373462733
          ]
        ]
      }
    },
    {
      "type": "Feature",
      "properties": {
        "road_id": "RD015",
        "road_name": "Jalan Penghubung Mulyorejo-Pabean Cantian",
        "type": "Kolektor"
      },
      "geometry": {
        "type": "LineString",
        "coordinates": [
          [
            112.78482475000001,
            -7.2612362500000005
          ],
          [
            112.78502737253723,
            -7.26102405826284
          ]
        ]
      }
    },
    {
      "type": "Feature",
      "properties": {
        "road_id": "RD016",
        "road_name": "Jalan Penghubung Pabean Cantian-Pakal",
        "type": "Kolektor"
      },
      "geometry": {
        "type": "LineString",
        "coordinates": [
          [
            112.72933795,
            -7.2167683
          ],
          [
            112.72851337785997,
            -7.217709408125294
          ]
        ]
      }
    },
    {
      "type": "Feature",
      "properties": {
        "road_id": "RD017",
        "road_name": "Jalan Penghubung Pakal-Rungkut",
        "type": "Kolektor"
      },
      "geometry": {
        "type": "LineString",
        "coordinates": [
          [
            112.62544555,
            -7.23999285
          ],
          [
            112.62514411915514,
            -7.239838279337215
          ]
        ]
      }
    },
    {
      "type": "Feature",
      "properties": {
        "road_id": "RD018",
        "road_name": "Jalan Penghubung Rungkut-Sambikerep",
        "type": "Kolektor"
      },
      "geometry": {
        "type": "LineString",
        "coordinates": [
          [
            112.72890390906404,
            -7.217298534041475
          ],
          [
            112.72847226260532,
            -7.216929281288107
          ]
        ]
      }
    },
    {
      "type": "Feature",
      "properties": {
        "road_id": "RD019",
        "road_name": "Jalan Penghubung Sambikerep-Sawahan",
        "type": "Kolektor"
      },
      "geometry": {
        "type": "LineString",
        "coordinates": [
          [
            112.6552969,
            -7.2658873
          ],
          [
            112.65519954232053,
            -7.266759158701283
          ]
        ]
      }
    },
    {
      "type": "Feature",
      "properties": {
        "road_id": "RD020",
        "road_name": "Jalan Penghubung Sawahan-Semampir",
        "type": "Kolektor"
      },
      "geometry": {
        "type": "LineString",
        "coordinates": [
          [
            112.71616485,
            -7.2840657
          ],
          [
            112.7154640680864,
            -7.284027149701213
          ]
        ]
      }
    },
    {
      "type": "Feature",
      "properties": {
        "road_id": "RD021",
        "road_name": "Jalan Penghubung Semampir-Simokerto",
        "type": "Kolektor"
      },
      "geometry": {
        "type": "LineString",
        "coordinates": [
          [
            112.7458149,
            -7.2259252499999995
          ],
          [
            112.7457047422539,
            -7.226174408086806
          ]
        ]
      }
    },
    {
      "type": "Feature",
      "properties": {
        "road_id": "RD022",
        "road_name": "Jalan Penghubung Simokerto-Suko Manunggal",
        "type": "Kolektor"
      },
      "geometry": {
        "type": "LineString",
        "coordinates": [
          [
            112.75790144999999,
            -7.24375495
          ],
          [
            112.75811632665885,
            -7.243614841331616
          ]
        ]
      }
    },
    {
      "type": "Feature",
      "properties": {
        "road_id": "RD023",
        "road_name": "Jalan Penghubung Suko Manunggal-Sukolilo",
        "type": "Kolektor"
      },
      "geometry": {
        "type": "LineString",
        "coordinates": [
          [
            112.71228439999999,
            -7.260940649999999
          ],
          [
            112.71204599359612,
            -7.25992382215478
          ]
        ]
      }
    },
    {
      "type": "Feature",
      "properties": {
        "road_id": "RD024",
        "road_name": "Jalan Penghubung Sukolilo-Tambaksari",
        "type": "Kolektor"
      },
      "geometry": {
        "type": "LineString",
        "coordinates": [
          [
            112.75765333029078,
            -7.243969817782419
          ],
          [
            112.75703186096116,
            -7.24459249176186
          ]
        ]
      }
    },
    {
      "type": "Feature",
      "properties": {
        "road_id": "RD025",
        "road_name": "Jalan Penghubung Tambaksari-Tandes",
        "type": "Kolektor"
      },
      "geometry": {
        "type": "LineString",
        "coordinates": [
          [
            112.7552194,
            -7.25751365
          ],
          [
            112.75500037928083,
            -7.257844554598559
          ]
        ]
      }
    },
    {
      "type": "Feature",
      "properties": {
        "road_id": "RD026",
        "road_name": "Jalan Penghubung Tandes-Tegalsari",
        "type": "Kolektor"
      },
      "geometry": {
        "type": "LineString",
        "coordinates": [
          [
            112.67804355000001,
            -7.25904545
          ],
          [
            112.67799538683279,
            -7.258759687837091
          ]
        ]
      }
    },
    {
      "type": "Feature",
      "properties": {
        "road_id": "RD027",
        "road_name": "Jalan Penghubung Tegalsari-Tenggilis Mejoyo",
        "type": "Kolektor"
      },
      "geometry": {
        "type": "LineString",
        "coordinates": [
          [
            112.74053295,
            -7.28794235
          ],
          [
            112.74123589894417,
            -7.2884926237141325
          ]
        ]
      }
    },
    {
      "type": "Feature",
      "properties": {
        "road_id": "RD028",
        "road_name": "Jalan Penghubung Tenggilis Mejoyo-Wiyung",
        "type": "Kolektor"
      },
      "geometry": {
        "type": "LineString",
        "coordinates": [
          [
            112.75729875,
            -7.31395895
          ],
          [
            112.75710866841168,
            -7.313725434075215
          ]
        ]
      }
    },
    {
      "type": "Feature",
      "properties": {
        "road_id": "RD029",
        "road_name": "Jalan Penghubung Wiyung-Wonocolo",
        "type": "Kolektor"
      },
      "geometry": {
        "type": "LineString",
        "coordinates": [
          [
            112.6951476,
            -7.31430655
          ],
          [
            112.69607105054054,
            -7.314425435429943
          ]
        ]
      }
    },
    {
      "type": "Feature",
      "properties": {
        "road_id": "RD030",
        "road_name": "Jalan Penghubung Wonocolo-Wonokromo",
        "type": "Kolektor"
      },
      "geometry": {
        "type": "LineString",
        "coordinates": [
          [
            112.75708790303764,
            -7.313718712510665
          ],
          [
            112.75813486598182,
            -7.313776539093807
          ]
        ]
      }
    }
  ]
}