{
"type": "FeatureCollection",
"name": "heal_city_gap",
"crs": { "type": "name", "properties": { "name": "urn:ogc:def:crs:OGC:1.3:CRS84" } },
"features": [
{ "type": "Feature", "properties": { "kecamatan": "ASEMROWO", "healthcare_gap_score": 70.155139897438943, "priority_category": "Sangat Tinggi", "priority_rank": 4, "demand_score": 0.36169398181239881, "workforce_gap": 0.98053805761352864, "facility_gap": 0.81164069351683199, "disease_need_score": 0.68276824221622379, "accessibility_gap": 0.0, "primary_root_cause": "WORKFORCE_SHORTAGE", "secondary_root_cause": "FACILITY_SHORTAGE", "tertiary_root_cause": "DISEASE_BURDEN", "root_cause_type": "MULTI_FACTOR", "root_cause_confidence": "HIGH", "root_cause_margin": 0.16889736409669664, "workforce_issue": "Low Nurse Ratio", "facility_issue": "Low Faskes Ratio", "demand_issue": "High Disease Burden", "disease_issue": "Penyakit pada sistem pernafasan (10733 cases)", "accessibility_issue": "NOT_AVAILABLE", "explanation": "Kecamatan Asemrowo memiliki Healthcare Gap Score sebesar 70.2 dan termasuk kategori Sangat Tinggi. Faktor kontributor utama adalah: 1. Workforce Shortage Gap (0.98), 2. Facility Capacity Gap (0.81), 3. Disease Burden Need (0.68). Indikator paling menonjol dalam model adalah Low Nurse Ratio, dengan sub-skor 0.98. Temuan ini menunjukkan adanya indikasi keterbatasan jumlah tenaga kesehatan medis, terutama perawat, dibandingkan dengan kepadatan penduduk setempat.", "data_quality_status": "COMPLETE" }, "geometry": { "type": "Polygon", "coordinates": [ [ [ 112.58, -7.35 ], [ 112.62, -7.35 ], [ 112.62, -7.321666666666666 ], [ 112.58, -7.321666666666666 ], [ 112.58, -7.35 ] ] ] } },
{ "type": "Feature", "properties": { "kecamatan": "BENOWO", "healthcare_gap_score": 51.354743542614223, "priority_category": "Tinggi", "priority_rank": 19, "demand_score": 0.19849637638781195, "workforce_gap": 0.7259070149390171, "facility_gap": 0.81321859975063837, "disease_need_score": 0.36791349038982929, "accessibility_gap": 0.0, "primary_root_cause": "FACILITY_SHORTAGE", "secondary_root_cause": "WORKFORCE_SHORTAGE", "tertiary_root_cause": "DISEASE_BURDEN", "root_cause_type": "SINGLE_FACTOR", "root_cause_confidence": "MEDIUM", "root_cause_margin": 0.087311584811621268, "workforce_issue": "Low Nakes Ratio", "facility_issue": "Low Puskesmas Ratio", "demand_issue": "High Disease Burden", "disease_issue": "Faktor-faktor yang mempengaruhi status kesehatan dan hubungannya dengan jasa kesehatan (15690 cases)", "accessibility_issue": "NOT_AVAILABLE", "explanation": "Kecamatan Benowo memiliki Healthcare Gap Score sebesar 51.4 dan termasuk kategori Tinggi. Faktor kontributor utama adalah: 1. Facility Capacity Gap (0.81), 2. Workforce Shortage Gap (0.73), 3. Disease Burden Need (0.37). Indikator paling menonjol dalam model adalah Low Puskesmas Ratio, dengan sub-skor 0.81. Temuan ini menunjukkan adanya indikasi kurangnya ketersediaan fasilitas pelayanan kesehatan tingkat pertama (Puskesmas/Pustu) atau kapasitas tempat tidur rawat inap.", "data_quality_status": "COMPLETE" }, "geometry": { "type": "Polygon", "coordinates": [ [ [ 112.62, -7.35 ], [ 112.66, -7.35 ], [ 112.66, -7.321666666666666 ], [ 112.62, -7.321666666666666 ], [ 112.62, -7.35 ] ] ] } },
{ "type": "Feature", "properties": { "kecamatan": "BUBUTAN", "healthcare_gap_score": 60.673861789953691, "priority_category": "Sangat Tinggi", "priority_rank": 11, "demand_score": 0.31957924002615035, "workforce_gap": 0.94799071931584677, "facility_gap": 0.74518928169530241, "disease_need_score": 0.38714886878938648, "accessibility_gap": 0.0, "primary_root_cause": "WORKFORCE_SHORTAGE", "secondary_root_cause": "FACILITY_SHORTAGE", "tertiary_root_cause": "DISEASE_BURDEN", "root_cause_type": "SINGLE_FACTOR", "root_cause_confidence": "HIGH", "root_cause_margin": 0.20280143762054437, "workforce_issue": "Low Nurse Ratio", "facility_issue": "Low Bed Capacity", "demand_issue": "High Disease Burden", "disease_issue": "Penyakit pada sistem pernafasan (14858 cases)", "accessibility_issue": "NOT_AVAILABLE", "explanation": "Kecamatan Bubutan memiliki Healthcare Gap Score sebesar 60.7 dan termasuk kategori Sangat Tinggi. Faktor kontributor utama adalah: 1. Workforce Shortage Gap (0.95), 2. Facility Capacity Gap (0.75), 3. Disease Burden Need (0.39). Indikator paling menonjol dalam model adalah Low Nurse Ratio, dengan sub-skor 0.95. Temuan ini menunjukkan adanya indikasi keterbatasan jumlah tenaga kesehatan medis, terutama perawat, dibandingkan dengan kepadatan penduduk setempat.", "data_quality_status": "COMPLETE" }, "geometry": { "type": "Polygon", "coordinates": [ [ [ 112.66, -7.35 ], [ 112.7, -7.35 ], [ 112.7, -7.321666666666666 ], [ 112.66, -7.321666666666666 ], [ 112.66, -7.35 ] ] ] } },
{ "type": "Feature", "properties": { "kecamatan": "BULAK", "healthcare_gap_score": 51.681505919715008, "priority_category": "Tinggi", "priority_rank": 18, "demand_score": 0.13024992102563587, "workforce_gap": 0.92567254954472811, "facility_gap": 0.73043481406525912, "disease_need_score": 0.26975677606494536, "accessibility_gap": 0.0, "primary_root_cause": "WORKFORCE_SHORTAGE", "secondary_root_cause": "FACILITY_SHORTAGE", "tertiary_root_cause": "DISEASE_BURDEN", "root_cause_type": "SINGLE_FACTOR", "root_cause_confidence": "HIGH", "root_cause_margin": 0.19523773547946899, "workforce_issue": "Low Nurse Ratio", "facility_issue": "Low Bed Capacity", "demand_issue": "High Disease Burden", "disease_issue": "Faktor-faktor yang mempengaruhi status kesehatan dan hubungannya dengan jasa kesehatan (5902 cases)", "accessibility_issue": "NOT_AVAILABLE", "explanation": "Kecamatan Bulak memiliki Healthcare Gap Score sebesar 51.7 dan termasuk kategori Tinggi. Faktor kontributor utama adalah: 1. Workforce Shortage Gap (0.93), 2. Facility Capacity Gap (0.73), 3. Disease Burden Need (0.27). Indikator paling menonjol dalam model adalah Low Nurse Ratio, dengan sub-skor 0.93. Temuan ini menunjukkan adanya indikasi keterbatasan jumlah tenaga kesehatan medis, terutama perawat, dibandingkan dengan kepadatan penduduk setempat.", "data_quality_status": "COMPLETE" }, "geometry": { "type": "Polygon", "coordinates": [ [ [ 112.7, -7.35 ], [ 112.74, -7.35 ], [ 112.74, -7.321666666666666 ], [ 112.7, -7.321666666666666 ], [ 112.7, -7.35 ] ] ] } },
{ "type": "Feature", "properties": { "kecamatan": "DUKUH PAKIS", "healthcare_gap_score": 40.003572554220348, "priority_category": "Tinggi", "priority_rank": 28, "demand_score": 0.24484956629678509, "workforce_gap": 0.6974097014855809, "facility_gap": 0.48826143395997645, "disease_need_score": 0.098528292077492169, "accessibility_gap": 0.0, "primary_root_cause": "WORKFORCE_SHORTAGE", "secondary_root_cause": "FACILITY_SHORTAGE", "tertiary_root_cause": "HIGH_DEMAND", "root_cause_type": "NO_DOMINANT_ROOT_CAUSE", "root_cause_confidence": "MEDIUM", "root_cause_margin": 0.20914826752560445, "workforce_issue": "Low Nurse Ratio", "facility_issue": "Low Bed Capacity", "demand_issue": "High Service Pressure", "disease_issue": "Penyakit pada sistem pencernaan (6492 cases)", "accessibility_issue": "NOT_AVAILABLE", "explanation": "Kecamatan Dukuh Pakis memiliki Healthcare Gap Score sebesar 40.0 dan termasuk kategori Tinggi. Faktor kontributor utama adalah: 1. Workforce Shortage Gap (0.70), 2. Facility Capacity Gap (0.49), 3. High Demand Score (0.24). Indikator paling menonjol dalam model adalah Low Nurse Ratio, dengan sub-skor 0.70. Temuan ini menunjukkan adanya indikasi keterbatasan jumlah tenaga kesehatan medis, terutama perawat, dibandingkan dengan kepadatan penduduk setempat.", "data_quality_status": "COMPLETE" }, "geometry": { "type": "Polygon", "coordinates": [ [ [ 112.74, -7.35 ], [ 112.78, -7.35 ], [ 112.78, -7.321666666666666 ], [ 112.74, -7.321666666666666 ], [ 112.74, -7.35 ] ] ] } },
{ "type": "Feature", "properties": { "kecamatan": "GAYUNGAN", "healthcare_gap_score": 47.141567072758171, "priority_category": "Tinggi", "priority_rank": 24, "demand_score": 0.48664783655337318, "workforce_gap": 0.33971722721896053, "facility_gap": 0.47424023579568952, "disease_need_score": 0.64329052218371852, "accessibility_gap": 0.0, "primary_root_cause": "DISEASE_BURDEN", "secondary_root_cause": "HIGH_DEMAND", "tertiary_root_cause": "FACILITY_SHORTAGE", "root_cause_type": "NO_DOMINANT_ROOT_CAUSE", "root_cause_confidence": "MEDIUM", "root_cause_margin": 0.15664268563034534, "workforce_issue": "Low Nurse Ratio", "facility_issue": "Low Puskesmas Ratio", "demand_issue": "High Service Pressure", "disease_issue": "Faktor-faktor yang mempengaruhi status kesehatan dan hubungannya dengan jasa kesehatan (10213 cases)", "accessibility_issue": "NOT_AVAILABLE", "explanation": "Kecamatan Gayungan memiliki Healthcare Gap Score sebesar 47.1 dan termasuk kategori Tinggi. Faktor kontributor utama adalah: 1. Disease Burden Need (0.64), 2. High Demand Score (0.49), 3. Facility Capacity Gap (0.47). Indikator paling menonjol dalam model adalah High caseload of Faktor-faktor yang mempengaruhi status kesehatan dan hubungannya dengan jasa kesehatan, dengan sub-skor 0.64. Temuan ini menunjukkan adanya indikasi besarnya prevalensi kasus penyakit masyarakat (terutama ISPA) yang memerlukan intervensi preventif dan promotif.", "data_quality_status": "COMPLETE" }, "geometry": { "type": "Polygon", "coordinates": [ [ [ 112.78, -7.35 ], [ 112.82, -7.35 ], [ 112.82, -7.321666666666666 ], [ 112.78, -7.321666666666666 ], [ 112.78, -7.35 ] ] ] } },
{ "type": "Feature", "properties": { "kecamatan": "GENTENG", "healthcare_gap_score": 59.856904471987072, "priority_category": "Tinggi", "priority_rank": 12, "demand_score": 0.70554174119359536, "workforce_gap": 0.39708644201051857, "facility_gap": 0.3389029487931825, "disease_need_score": 1.0, "accessibility_gap": 0.0, "primary_root_cause": "DISEASE_BURDEN", "secondary_root_cause": "HIGH_DEMAND", "tertiary_root_cause": "WORKFORCE_SHORTAGE", "root_cause_type": "SINGLE_FACTOR", "root_cause_confidence": "HIGH", "root_cause_margin": 0.29445825880640464, "workforce_issue": "Low Nakes Ratio", "facility_issue": "Low Bed Capacity", "demand_issue": "High Disease Burden", "disease_issue": "Penyakit pada sistem pernafasan (16565 cases)", "accessibility_issue": "NOT_AVAILABLE", "explanation": "Kecamatan Genteng memiliki Healthcare Gap Score sebesar 59.9 dan termasuk kategori Tinggi. Faktor kontributor utama adalah: 1. Disease Burden Need (1.00), 2. High Demand Score (0.71), 3. Workforce Shortage Gap (0.40). Indikator paling menonjol dalam model adalah High caseload of Penyakit pada sistem pernafasan, dengan sub-skor 1.00. Temuan ini menunjukkan adanya indikasi besarnya prevalensi kasus penyakit masyarakat (terutama ISPA) yang memerlukan intervensi preventif dan promotif.", "data_quality_status": "COMPLETE" }, "geometry": { "type": "Polygon", "coordinates": [ [ [ 112.58, -7.321666666666666 ], [ 112.62, -7.321666666666666 ], [ 112.62, -7.293333333333333 ], [ 112.58, -7.293333333333333 ], [ 112.58, -7.321666666666666 ] ] ] } },
{ "type": "Feature", "properties": { "kecamatan": "GUBENG", "healthcare_gap_score": 37.018871116272088, "priority_category": "Sedang", "priority_rank": 30, "demand_score": 0.4294838984779567, "workforce_gap": 0.046198705292541602, "facility_gap": 0.55897254390953199, "disease_need_score": 0.57844710624832507, "accessibility_gap": 0.0, "primary_root_cause": "DISEASE_BURDEN", "secondary_root_cause": "FACILITY_SHORTAGE", "tertiary_root_cause": "HIGH_DEMAND", "root_cause_type": "NO_DOMINANT_ROOT_CAUSE", "root_cause_confidence": "MEDIUM", "root_cause_margin": 0.019474562338793078, "workforce_issue": "Low Midwife Ratio", "facility_issue": "Low Puskesmas Ratio", "demand_issue": "High Disease Burden", "disease_issue": "Faktor-faktor yang mempengaruhi status kesehatan dan hubungannya dengan jasa kesehatan (29273 cases)", "accessibility_issue": "NOT_AVAILABLE", "explanation": "Kecamatan Gubeng memiliki Healthcare Gap Score sebesar 37.0 dan termasuk kategori Sedang. Faktor kontributor utama adalah: 1. Disease Burden Need (0.58), 2. Facility Capacity Gap (0.56), 3. High Demand Score (0.43). Indikator paling menonjol dalam model adalah High caseload of Faktor-faktor yang mempengaruhi status kesehatan dan hubungannya dengan jasa kesehatan, dengan sub-skor 0.58. Temuan ini menunjukkan adanya indikasi besarnya prevalensi kasus penyakit masyarakat (terutama ISPA) yang memerlukan intervensi preventif dan promotif.", "data_quality_status": "COMPLETE" }, "geometry": { "type": "Polygon", "coordinates": [ [ [ 112.62, -7.321666666666666 ], [ 112.66, -7.321666666666666 ], [ 112.66, -7.293333333333333 ], [ 112.62, -7.293333333333333 ], [ 112.62, -7.321666666666666 ] ] ] } },
{ "type": "Feature", "properties": { "kecamatan": "GUNUNG ANYAR", "healthcare_gap_score": 52.762495604462224, "priority_category": "Tinggi", "priority_rank": 15, "demand_score": 0.12027547887004464, "workforce_gap": 0.9725118716872212, "facility_gap": 0.69900802423815511, "disease_need_score": 0.29993573014905711, "accessibility_gap": 0.0, "primary_root_cause": "WORKFORCE_SHORTAGE", "secondary_root_cause": "FACILITY_SHORTAGE", "tertiary_root_cause": "DISEASE_BURDEN", "root_cause_type": "SINGLE_FACTOR", "root_cause_confidence": "HIGH", "root_cause_margin": 0.27350384744906608, "workforce_issue": "Low Nurse Ratio", "facility_issue": "Low Bed Capacity", "demand_issue": "High Disease Burden", "disease_issue": "Penyakit pada sistem pernafasan (7543 cases)", "accessibility_issue": "NOT_AVAILABLE", "explanation": "Kecamatan Gunung Anyar memiliki Healthcare Gap Score sebesar 52.8 dan termasuk kategori Tinggi. Faktor kontributor utama adalah: 1. Workforce Shortage Gap (0.97), 2. Facility Capacity Gap (0.70), 3. Disease Burden Need (0.30). Indikator paling menonjol dalam model adalah Low Nurse Ratio, dengan sub-skor 0.97. Temuan ini menunjukkan adanya indikasi keterbatasan jumlah tenaga kesehatan medis, terutama perawat, dibandingkan dengan kepadatan penduduk setempat.", "data_quality_status": "COMPLETE" }, "geometry": { "type": "Polygon", "coordinates": [ [ [ 112.66, -7.321666666666666 ], [ 112.7, -7.321666666666666 ], [ 112.7, -7.293333333333333 ], [ 112.66, -7.293333333333333 ], [ 112.66, -7.321666666666666 ] ] ] } },
{ "type": "Feature", "properties": { "kecamatan": "JAMBANGAN", "healthcare_gap_score": 50.17480408166324, "priority_category": "Tinggi", "priority_rank": 21, "demand_score": 0.21959302339564915, "workforce_gap": 0.89838611448257544, "facility_gap": 0.71619265187430436, "disease_need_score": 0.11557884539152101, "accessibility_gap": 0.0, "primary_root_cause": "WORKFORCE_SHORTAGE", "secondary_root_cause": "FACILITY_SHORTAGE", "tertiary_root_cause": "HIGH_DEMAND", "root_cause_type": "SINGLE_FACTOR", "root_cause_confidence": "HIGH", "root_cause_margin": 0.18219346260827107, "workforce_issue": "Low Nurse Ratio", "facility_issue": "Low Bed Capacity", "demand_issue": "High Service Pressure", "disease_issue": "Penyakit pada sistem pencernaan (5315 cases)", "accessibility_issue": "NOT_AVAILABLE", "explanation": "Kecamatan Jambangan memiliki Healthcare Gap Score sebesar 50.2 dan termasuk kategori Tinggi. Faktor kontributor utama adalah: 1. Workforce Shortage Gap (0.90), 2. Facility Capacity Gap (0.72), 3. High Demand Score (0.22). Indikator paling menonjol dalam model adalah Low Nurse Ratio, dengan sub-skor 0.90. Temuan ini menunjukkan adanya indikasi keterbatasan jumlah tenaga kesehatan medis, terutama perawat, dibandingkan dengan kepadatan penduduk setempat.", "data_quality_status": "COMPLETE" }, "geometry": { "type": "Polygon", "coordinates": [ [ [ 112.7, -7.321666666666666 ], [ 112.74, -7.321666666666666 ], [ 112.74, -7.293333333333333 ], [ 112.7, -7.293333333333333 ], [ 112.7, -7.321666666666666 ] ] ] } },
{ "type": "Feature", "properties": { "kecamatan": "KARANG PILANG", "healthcare_gap_score": 63.385980255825494, "priority_category": "Sangat Tinggi", "priority_rank": 9, "demand_score": 0.27153885243559417, "workforce_gap": 0.97741990194664696, "facility_gap": 0.8154350343632506, "disease_need_score": 0.48042584685466255, "accessibility_gap": 0.0, "primary_root_cause": "WORKFORCE_SHORTAGE", "secondary_root_cause": "FACILITY_SHORTAGE", "tertiary_root_cause": "DISEASE_BURDEN", "root_cause_type": "MULTI_FACTOR", "root_cause_confidence": "HIGH", "root_cause_margin": 0.16198486758339636, "workforce_issue": "Low Nurse Ratio", "facility_issue": "Low Puskesmas Ratio", "demand_issue": "High Disease Burden", "disease_issue": "Penyakit pada sistem pernafasan (11682 cases)", "accessibility_issue": "NOT_AVAILABLE", "explanation": "Kecamatan Karang Pilang memiliki Healthcare Gap Score sebesar 63.4 dan termasuk kategori Sangat Tinggi. Faktor kontributor utama adalah: 1. Workforce Shortage Gap (0.98), 2. Facility Capacity Gap (0.82), 3. Disease Burden Need (0.48). Indikator paling menonjol dalam model adalah Low Nurse Ratio, dengan sub-skor 0.98. Temuan ini menunjukkan adanya indikasi keterbatasan jumlah tenaga kesehatan medis, terutama perawat, dibandingkan dengan kepadatan penduduk setempat.", "data_quality_status": "COMPLETE" }, "geometry": { "type": "Polygon", "coordinates": [ [ [ 112.74, -7.321666666666666 ], [ 112.78, -7.321666666666666 ], [ 112.78, -7.293333333333333 ], [ 112.74, -7.293333333333333 ], [ 112.74, -7.321666666666666 ] ] ] } },
{ "type": "Feature", "properties": { "kecamatan": "KENJERAN", "healthcare_gap_score": 78.061967062638999, "priority_category": "Sangat Tinggi", "priority_rank": 1, "demand_score": 0.70541792891277233, "workforce_gap": 1.0, "facility_gap": 0.76889238529545756, "disease_need_score": 0.5760790744673342, "accessibility_gap": 0.0, "primary_root_cause": "WORKFORCE_SHORTAGE", "secondary_root_cause": "FACILITY_SHORTAGE", "tertiary_root_cause": "HIGH_DEMAND", "root_cause_type": "SINGLE_FACTOR", "root_cause_confidence": "HIGH", "root_cause_margin": 0.23110761470454244, "workforce_issue": "Low Nakes Ratio", "facility_issue": "Low Bed Capacity", "demand_issue": "High Population Demand", "disease_issue": "Faktor-faktor yang mempengaruhi status kesehatan dan hubungannya dengan jasa kesehatan (29064 cases)", "accessibility_issue": "NOT_AVAILABLE", "explanation": "Kecamatan Kenjeran memiliki Healthcare Gap Score sebesar 78.1 dan termasuk kategori Sangat Tinggi. Faktor kontributor utama adalah: 1. Workforce Shortage Gap (1.00), 2. Facility Capacity Gap (0.77), 3. High Demand Score (0.71). Indikator paling menonjol dalam model adalah Low Nakes Ratio, dengan sub-skor 1.00. Temuan ini menunjukkan adanya indikasi keterbatasan jumlah tenaga kesehatan medis, terutama perawat, dibandingkan dengan kepadatan penduduk setempat.", "data_quality_status": "COMPLETE" }, "geometry": { "type": "Polygon", "coordinates": [ [ [ 112.78, -7.321666666666666 ], [ 112.82, -7.321666666666666 ], [ 112.82, -7.293333333333333 ], [ 112.78, -7.293333333333333 ], [ 112.78, -7.321666666666666 ] ] ] } },
{ "type": "Feature", "properties": { "kecamatan": "KREMBANGAN", "healthcare_gap_score": 72.910063268519849, "priority_category": "Sangat Tinggi", "priority_rank": 2, "demand_score": 0.62603761577680761, "workforce_gap": 0.91235704716411914, "facility_gap": 0.67654087966074639, "disease_need_score": 0.66137028935385633, "accessibility_gap": 0.0, "primary_root_cause": "WORKFORCE_SHORTAGE", "secondary_root_cause": "FACILITY_SHORTAGE", "tertiary_root_cause": "DISEASE_BURDEN", "root_cause_type": "SINGLE_FACTOR", "root_cause_confidence": "HIGH", "root_cause_margin": 0.23581616750337275, "workforce_issue": "Low Nakes Ratio", "facility_issue": "Low Bed Capacity", "demand_issue": "High Service Pressure", "disease_issue": "Penyakit pada sistem pernafasan (26794 cases)", "accessibility_issue": "NOT_AVAILABLE", "explanation": "Kecamatan Krembangan memiliki Healthcare Gap Score sebesar 72.9 dan termasuk kategori Sangat Tinggi. Faktor kontributor utama adalah: 1. Workforce Shortage Gap (0.91), 2. Facility Capacity Gap (0.68), 3. Disease Burden Need (0.66). Indikator paling menonjol dalam model adalah Low Nakes Ratio, dengan sub-skor 0.91. Temuan ini menunjukkan adanya indikasi keterbatasan jumlah tenaga kesehatan medis, terutama perawat, dibandingkan dengan kepadatan penduduk setempat.", "data_quality_status": "COMPLETE" }, "geometry": { "type": "Polygon", "coordinates": [ [ [ 112.58, -7.293333333333333 ], [ 112.62, -7.293333333333333 ], [ 112.62, -7.265 ], [ 112.58, -7.265 ], [ 112.58, -7.293333333333333 ] ] ] } },
{ "type": "Feature", "properties": { "kecamatan": "LAKARSANTRI", "healthcare_gap_score": 67.790729437361847, "priority_category": "Sangat Tinggi", "priority_rank": 6, "demand_score": 0.62597538601079783, "workforce_gap": 0.95775040367131548, "facility_gap": 0.29418689002385889, "disease_need_score": 0.71976089732106396, "accessibility_gap": 0.0, "primary_root_cause": "WORKFORCE_SHORTAGE", "secondary_root_cause": "DISEASE_BURDEN", "tertiary_root_cause": "HIGH_DEMAND", "root_cause_type": "SINGLE_FACTOR", "root_cause_confidence": "HIGH", "root_cause_margin": 0.23798950635025151, "workforce_issue": "Low Nurse Ratio", "facility_issue": "Low Bed Capacity", "demand_issue": "High Service Pressure", "disease_issue": "Penyakit pada sistem pernafasan (14667 cases)", "accessibility_issue": "NOT_AVAILABLE", "explanation": "Kecamatan Lakarsantri memiliki Healthcare Gap Score sebesar 67.8 dan termasuk kategori Sangat Tinggi. Faktor kontributor utama adalah: 1. Workforce Shortage Gap (0.96), 2. Disease Burden Need (0.72), 3. High Demand Score (0.63). Indikator paling menonjol dalam model adalah Low Nurse Ratio, dengan sub-skor 0.96. Temuan ini menunjukkan adanya indikasi keterbatasan jumlah tenaga kesehatan medis, terutama perawat, dibandingkan dengan kepadatan penduduk setempat.", "data_quality_status": "COMPLETE" }, "geometry": { "type": "Polygon", "coordinates": [ [ [ 112.62, -7.293333333333333 ], [ 112.66, -7.293333333333333 ], [ 112.66, -7.265 ], [ 112.62, -7.265 ], [ 112.62, -7.293333333333333 ] ] ] } },
{ "type": "Feature", "properties": { "kecamatan": "MULYOREJO", "healthcare_gap_score": 32.117700051863537, "priority_category": "Sedang", "priority_rank": 31, "demand_score": 0.25255558160722347, "workforce_gap": 0.32710604400982668, "facility_gap": 0.38511893097431027, "disease_need_score": 0.3512736331932913, "accessibility_gap": 0.0, "primary_root_cause": "FACILITY_SHORTAGE", "secondary_root_cause": "DISEASE_BURDEN", "tertiary_root_cause": "WORKFORCE_SHORTAGE", "root_cause_type": "NO_DOMINANT_ROOT_CAUSE", "root_cause_confidence": "MEDIUM", "root_cause_margin": 0.033845297781018968, "workforce_issue": "Low Nakes Ratio", "facility_issue": "Low Bed Capacity", "demand_issue": "High Disease Burden", "disease_issue": "Penyakit pada sistem pernafasan (11632 cases)", "accessibility_issue": "NOT_AVAILABLE", "explanation": "Kecamatan Mulyorejo memiliki Healthcare Gap Score sebesar 32.1 dan termasuk kategori Sedang. Faktor kontributor utama adalah: 1. Facility Capacity Gap (0.39), 2. Disease Burden Need (0.35), 3. Workforce Shortage Gap (0.33). Indikator paling menonjol dalam model adalah Low Bed Capacity, dengan sub-skor 0.39. Temuan ini menunjukkan adanya indikasi kurangnya ketersediaan fasilitas pelayanan kesehatan tingkat pertama (Puskesmas/Pustu) atau kapasitas tempat tidur rawat inap.", "data_quality_status": "COMPLETE" }, "geometry": { "type": "Polygon", "coordinates": [ [ [ 112.66, -7.293333333333333 ], [ 112.7, -7.293333333333333 ], [ 112.7, -7.265 ], [ 112.66, -7.265 ], [ 112.66, -7.293333333333333 ] ] ] } },
{ "type": "Feature", "properties": { "kecamatan": "PABEAN CANTIAN", "healthcare_gap_score": 38.491177418319658, "priority_category": "Sedang", "priority_rank": 29, "demand_score": 0.23205239892622401, "workforce_gap": 0.47436939619899621, "facility_gap": 0.70502270543417289, "disease_need_score": 0.15990347279397957, "accessibility_gap": 0.0, "primary_root_cause": "FACILITY_SHORTAGE", "secondary_root_cause": "WORKFORCE_SHORTAGE", "tertiary_root_cause": "HIGH_DEMAND", "root_cause_type": "NO_DOMINANT_ROOT_CAUSE", "root_cause_confidence": "MEDIUM", "root_cause_margin": 0.23065330923517668, "workforce_issue": "Low Nakes Ratio", "facility_issue": "Low Puskesmas Ratio", "demand_issue": "High Service Pressure", "disease_issue": "Faktor-faktor yang mempengaruhi status kesehatan dan hubungannya dengan jasa kesehatan (6820 cases)", "accessibility_issue": "NOT_AVAILABLE", "explanation": "Kecamatan Pabean Cantian memiliki Healthcare Gap Score sebesar 38.5 dan termasuk kategori Sedang. Faktor kontributor utama adalah: 1. Facility Capacity Gap (0.71), 2. Workforce Shortage Gap (0.47), 3. High Demand Score (0.23). Indikator paling menonjol dalam model adalah Low Puskesmas Ratio, dengan sub-skor 0.71. Temuan ini menunjukkan adanya indikasi kurangnya ketersediaan fasilitas pelayanan kesehatan tingkat pertama (Puskesmas/Pustu) atau kapasitas tempat tidur rawat inap.", "data_quality_status": "COMPLETE" }, "geometry": { "type": "Polygon", "coordinates": [ [ [ 112.7, -7.293333333333333 ], [ 112.74, -7.293333333333333 ], [ 112.74, -7.265 ], [ 112.7, -7.265 ], [ 112.7, -7.293333333333333 ] ] ] } },
{ "type": "Feature", "properties": { "kecamatan": "PAKAL", "healthcare_gap_score": 49.468293371508551, "priority_category": "Tinggi", "priority_rank": 22, "demand_score": 0.12790427762607437, "workforce_gap": 0.86927140743580511, "facility_gap": 0.83205641931751495, "disease_need_score": 0.1455947216650936, "accessibility_gap": 0.0, "primary_root_cause": "WORKFORCE_SHORTAGE", "secondary_root_cause": "FACILITY_SHORTAGE", "tertiary_root_cause": "DISEASE_BURDEN", "root_cause_type": "MULTI_FACTOR", "root_cause_confidence": "MEDIUM", "root_cause_margin": 0.03721498811829016, "workforce_issue": "Low Nurse Ratio", "facility_issue": "Low Puskesmas Ratio", "demand_issue": "High Disease Burden", "disease_issue": "Penyakit pada sistem pencernaan (7971 cases)", "accessibility_issue": "NOT_AVAILABLE", "explanation": "Kecamatan Pakal memiliki Healthcare Gap Score sebesar 49.5 dan termasuk kategori Tinggi. Faktor kontributor utama adalah: 1. Workforce Shortage Gap (0.87), 2. Facility Capacity Gap (0.83), 3. Disease Burden Need (0.15). Indikator paling menonjol dalam model adalah Low Nurse Ratio, dengan sub-skor 0.87. Temuan ini menunjukkan adanya indikasi keterbatasan jumlah tenaga kesehatan medis, terutama perawat, dibandingkan dengan kepadatan penduduk setempat.", "data_quality_status": "COMPLETE" }, "geometry": { "type": "Polygon", "coordinates": [ [ [ 112.74, -7.293333333333333 ], [ 112.78, -7.293333333333333 ], [ 112.78, -7.265 ], [ 112.74, -7.265 ], [ 112.74, -7.293333333333333 ] ] ] } },
{ "type": "Feature", "properties": { "kecamatan": "RUNGKUT", "healthcare_gap_score": 63.645140064414129, "priority_category": "Sangat Tinggi", "priority_rank": 8, "demand_score": 0.48628064516495739, "workforce_gap": 0.83945510258572986, "facility_gap": 0.63792375350168318, "disease_need_score": 0.55572962809299253, "accessibility_gap": 0.0, "primary_root_cause": "WORKFORCE_SHORTAGE", "secondary_root_cause": "FACILITY_SHORTAGE", "tertiary_root_cause": "DISEASE_BURDEN", "root_cause_type": "SINGLE_FACTOR", "root_cause_confidence": "HIGH", "root_cause_margin": 0.20153134908404668, "workforce_issue": "Low Nurse Ratio", "facility_issue": "Low Bed Capacity", "demand_issue": "High Disease Burden", "disease_issue": "Faktor-faktor yang mempengaruhi status kesehatan dan hubungannya dengan jasa kesehatan (20131 cases)", "accessibility_issue": "NOT_AVAILABLE", "explanation": "Kecamatan Rungkut memiliki Healthcare Gap Score sebesar 63.6 dan termasuk kategori Sangat Tinggi. Faktor kontributor utama adalah: 1. Workforce Shortage Gap (0.84), 2. Facility Capacity Gap (0.64), 3. Disease Burden Need (0.56). Indikator paling menonjol dalam model adalah Low Nurse Ratio, dengan sub-skor 0.84. Temuan ini menunjukkan adanya indikasi keterbatasan jumlah tenaga kesehatan medis, terutama perawat, dibandingkan dengan kepadatan penduduk setempat.", "data_quality_status": "COMPLETE" }, "geometry": { "type": "Polygon", "coordinates": [ [ [ 112.78, -7.293333333333333 ], [ 112.82, -7.293333333333333 ], [ 112.82, -7.265 ], [ 112.78, -7.265 ], [ 112.78, -7.293333333333333 ] ] ] } },
{ "type": "Feature", "properties": { "kecamatan": "SAMBIKEREP", "healthcare_gap_score": 44.235787966739053, "priority_category": "Tinggi", "priority_rank": 25, "demand_score": 0.22727752726274947, "workforce_gap": 0.67710269352852936, "facility_gap": 0.51727746149873632, "disease_need_score": 0.33794160565129822, "accessibility_gap": 0.0, "primary_root_cause": "WORKFORCE_SHORTAGE", "secondary_root_cause": "FACILITY_SHORTAGE", "tertiary_root_cause": "DISEASE_BURDEN", "root_cause_type": "NO_DOMINANT_ROOT_CAUSE", "root_cause_confidence": "MEDIUM", "root_cause_margin": 0.15982523202979304, "workforce_issue": "Low Nurse Ratio", "facility_issue": "Low Bed Capacity", "demand_issue": "High Disease Burden", "disease_issue": "Penyakit pada sistem pernafasan (9185 cases)", "accessibility_issue": "NOT_AVAILABLE", "explanation": "Kecamatan Sambikerep memiliki Healthcare Gap Score sebesar 44.2 dan termasuk kategori Tinggi. Faktor kontributor utama adalah: 1. Workforce Shortage Gap (0.68), 2. Facility Capacity Gap (0.52), 3. Disease Burden Need (0.34). Indikator paling menonjol dalam model adalah Low Nurse Ratio, dengan sub-skor 0.68. Temuan ini menunjukkan adanya indikasi keterbatasan jumlah tenaga kesehatan medis, terutama perawat, dibandingkan dengan kepadatan penduduk setempat.", "data_quality_status": "COMPLETE" }, "geometry": { "type": "Polygon", "coordinates": [ [ [ 112.58, -7.265 ], [ 112.62, -7.265 ], [ 112.62, -7.236666666666666 ], [ 112.58, -7.236666666666666 ], [ 112.58, -7.265 ] ] ] } },
{ "type": "Feature", "properties": { "kecamatan": "SAWAHAN", "healthcare_gap_score": 66.912929442998646, "priority_category": "Sangat Tinggi", "priority_rank": 7, "demand_score": 0.55506164181224038, "workforce_gap": 0.94581436019000864, "facility_gap": 0.73336929668921014, "disease_need_score": 0.36096317245734877, "accessibility_gap": 0.0, "primary_root_cause": "WORKFORCE_SHORTAGE", "secondary_root_cause": "FACILITY_SHORTAGE", "tertiary_root_cause": "HIGH_DEMAND", "root_cause_type": "SINGLE_FACTOR", "root_cause_confidence": "HIGH", "root_cause_margin": 0.2124450635007985, "workforce_issue": "Low Midwife Ratio", "facility_issue": "Low Bed Capacity", "demand_issue": "High Population Demand", "disease_issue": "Penyakit pada sistem pernafasan (25591 cases)", "accessibility_issue": "NOT_AVAILABLE", "explanation": "Kecamatan Sawahan memiliki Healthcare Gap Score sebesar 66.9 dan termasuk kategori Sangat Tinggi. Faktor kontributor utama adalah: 1. Workforce Shortage Gap (0.95), 2. Facility Capacity Gap (0.73), 3. High Demand Score (0.56). Indikator paling menonjol dalam model adalah Low Midwife Ratio, dengan sub-skor 0.95. Temuan ini menunjukkan adanya indikasi keterbatasan jumlah tenaga kesehatan medis, terutama perawat, dibandingkan dengan kepadatan penduduk setempat.", "data_quality_status": "COMPLETE" }, "geometry": { "type": "Polygon", "coordinates": [ [ [ 112.62, -7.265 ], [ 112.66, -7.265 ], [ 112.66, -7.236666666666666 ], [ 112.62, -7.236666666666666 ], [ 112.62, -7.265 ] ] ] } },
{ "type": "Feature", "properties": { "kecamatan": "SEMAMPIR", "healthcare_gap_score": 69.209390185285997, "priority_category": "Sangat Tinggi", "priority_rank": 5, "demand_score": 0.54193919760747233, "workforce_gap": 0.95509421527663152, "facility_gap": 0.75133257323177383, "disease_need_score": 0.46358681670636998, "accessibility_gap": 0.0, "primary_root_cause": "WORKFORCE_SHORTAGE", "secondary_root_cause": "FACILITY_SHORTAGE", "tertiary_root_cause": "HIGH_DEMAND", "root_cause_type": "SINGLE_FACTOR", "root_cause_confidence": "HIGH", "root_cause_margin": 0.20376164204485769, "workforce_issue": "Low Nakes Ratio", "facility_issue": "Low Bed Capacity", "demand_issue": "High Population Demand", "disease_issue": "Penyakit pada sistem pernafasan (36331 cases)", "accessibility_issue": "NOT_AVAILABLE", "explanation": "Kecamatan Semampir memiliki Healthcare Gap Score sebesar 69.2 dan termasuk kategori Sangat Tinggi. Faktor kontributor utama adalah: 1. Workforce Shortage Gap (0.96), 2. Facility Capacity Gap (0.75), 3. High Demand Score (0.54). Indikator paling menonjol dalam model adalah Low Nakes Ratio, dengan sub-skor 0.96. Temuan ini menunjukkan adanya indikasi keterbatasan jumlah tenaga kesehatan medis, terutama perawat, dibandingkan dengan kepadatan penduduk setempat.", "data_quality_status": "COMPLETE" }, "geometry": { "type": "Polygon", "coordinates": [ [ [ 112.66, -7.265 ], [ 112.7, -7.265 ], [ 112.7, -7.236666666666666 ], [ 112.66, -7.236666666666666 ], [ 112.66, -7.265 ] ] ] } },
{ "type": "Feature", "properties": { "kecamatan": "SIMOKERTO", "healthcare_gap_score": 52.2651502154146, "priority_category": "Tinggi", "priority_rank": 17, "demand_score": 0.38865391111706193, "workforce_gap": 0.59073465386046675, "facility_gap": 0.71110419868877106, "disease_need_score": 0.43307046461566551, "accessibility_gap": 0.0, "primary_root_cause": "FACILITY_SHORTAGE", "secondary_root_cause": "WORKFORCE_SHORTAGE", "tertiary_root_cause": "DISEASE_BURDEN", "root_cause_type": "NO_DOMINANT_ROOT_CAUSE", "root_cause_confidence": "MEDIUM", "root_cause_margin": 0.12036954482830431, "workforce_issue": "Low Nakes Ratio", "facility_issue": "Low Faskes Ratio", "demand_issue": "High Service Pressure", "disease_issue": "Penyakit pada sistem pernafasan (15444 cases)", "accessibility_issue": "NOT_AVAILABLE", "explanation": "Kecamatan Simokerto memiliki Healthcare Gap Score sebesar 52.3 dan termasuk kategori Tinggi. Faktor kontributor utama adalah: 1. Facility Capacity Gap (0.71), 2. Workforce Shortage Gap (0.59), 3. Disease Burden Need (0.43). Indikator paling menonjol dalam model adalah Low Faskes Ratio, dengan sub-skor 0.71. Temuan ini menunjukkan adanya indikasi kurangnya ketersediaan fasilitas pelayanan kesehatan tingkat pertama (Puskesmas/Pustu) atau kapasitas tempat tidur rawat inap.", "data_quality_status": "COMPLETE" }, "geometry": { "type": "Polygon", "coordinates": [ [ [ 112.7, -7.265 ], [ 112.74, -7.265 ], [ 112.74, -7.236666666666666 ], [ 112.7, -7.236666666666666 ], [ 112.7, -7.265 ] ] ] } },
{ "type": "Feature", "properties": { "kecamatan": "SUKO MANUNGGAL", "healthcare_gap_score": 59.00097019187951, "priority_category": "Tinggi", "priority_rank": 13, "demand_score": 0.39482613017541779, "workforce_gap": 0.82067920588148713, "facility_gap": 0.71585158059855691, "disease_need_score": 0.4109389249100609, "accessibility_gap": 0.0, "primary_root_cause": "WORKFORCE_SHORTAGE", "secondary_root_cause": "FACILITY_SHORTAGE", "tertiary_root_cause": "DISEASE_BURDEN", "root_cause_type": "SINGLE_FACTOR", "root_cause_confidence": "HIGH", "root_cause_margin": 0.10482762528293021, "workforce_issue": "Low Midwife Ratio", "facility_issue": "Low Bed Capacity", "demand_issue": "High Service Pressure", "disease_issue": "Penyakit pada sistem pernafasan (14969 cases)", "accessibility_issue": "NOT_AVAILABLE", "explanation": "Kecamatan Suko Manunggal memiliki Healthcare Gap Score sebesar 59.0 dan termasuk kategori Tinggi. Faktor kontributor utama adalah: 1. Workforce Shortage Gap (0.82), 2. Facility Capacity Gap (0.72), 3. Disease Burden Need (0.41). Indikator paling menonjol dalam model adalah Low Midwife Ratio, dengan sub-skor 0.82. Temuan ini menunjukkan adanya indikasi keterbatasan jumlah tenaga kesehatan medis, terutama perawat, dibandingkan dengan kepadatan penduduk setempat.", "data_quality_status": "COMPLETE" }, "geometry": { "type": "Polygon", "coordinates": [ [ [ 112.74, -7.265 ], [ 112.78, -7.265 ], [ 112.78, -7.236666666666666 ], [ 112.74, -7.236666666666666 ], [ 112.74, -7.265 ] ] ] } },
{ "type": "Feature", "properties": { "kecamatan": "SUKOLILO", "healthcare_gap_score": 48.404137162068359, "priority_category": "Tinggi", "priority_rank": 23, "demand_score": 0.43440735954542209, "workforce_gap": 0.49884709624061807, "facility_gap": 0.52033137588637923, "disease_need_score": 0.49999379853797876, "accessibility_gap": 0.0, "primary_root_cause": "FACILITY_SHORTAGE", "secondary_root_cause": "DISEASE_BURDEN", "tertiary_root_cause": "WORKFORCE_SHORTAGE", "root_cause_type": "NO_DOMINANT_ROOT_CAUSE", "root_cause_confidence": "MEDIUM", "root_cause_margin": 0.020337577348400471, "workforce_issue": "Low Nurse Ratio", "facility_issue": "Low Bed Capacity", "demand_issue": "High Disease Burden", "disease_issue": "Penyakit pada sistem pernafasan (17373 cases)", "accessibility_issue": "NOT_AVAILABLE", "explanation": "Kecamatan Sukolilo memiliki Healthcare Gap Score sebesar 48.4 dan termasuk kategori Tinggi. Faktor kontributor utama adalah: 1. Facility Capacity Gap (0.52), 2. Disease Burden Need (0.50), 3. Workforce Shortage Gap (0.50). Indikator paling menonjol dalam model adalah Low Bed Capacity, dengan sub-skor 0.52. Temuan ini menunjukkan adanya indikasi kurangnya ketersediaan fasilitas pelayanan kesehatan tingkat pertama (Puskesmas/Pustu) atau kapasitas tempat tidur rawat inap.", "data_quality_status": "COMPLETE" }, "geometry": { "type": "Polygon", "coordinates": [ [ [ 112.78, -7.265 ], [ 112.82, -7.265 ], [ 112.82, -7.236666666666666 ], [ 112.78, -7.236666666666666 ], [ 112.78, -7.265 ] ] ] } },
{ "type": "Feature", "properties": { "kecamatan": "TAMBAKSARI", "healthcare_gap_score": 53.463198920808608, "priority_category": "Tinggi", "priority_rank": 14, "demand_score": 0.32063094452884888, "workforce_gap": 0.9144242951942263, "facility_gap": 0.82057708645581773, "disease_need_score": 0.0, "accessibility_gap": 0.0, "primary_root_cause": "WORKFORCE_SHORTAGE", "secondary_root_cause": "FACILITY_SHORTAGE", "tertiary_root_cause": "HIGH_DEMAND", "root_cause_type": "MULTI_FACTOR", "root_cause_confidence": "MEDIUM", "root_cause_margin": 0.093847208738408572, "workforce_issue": "Low Midwife Ratio", "facility_issue": "Low Puskesmas Ratio", "demand_issue": "High Population Demand", "disease_issue": "Penyakit pada sistem pernafasan (14845 cases)", "accessibility_issue": "NOT_AVAILABLE", "explanation": "Kecamatan Tambaksari memiliki Healthcare Gap Score sebesar 53.5 dan termasuk kategori Tinggi. Faktor kontributor utama adalah: 1. Workforce Shortage Gap (0.91), 2. Facility Capacity Gap (0.82), 3. High Demand Score (0.32). Indikator paling menonjol dalam model adalah Low Midwife Ratio, dengan sub-skor 0.91. Temuan ini menunjukkan adanya indikasi keterbatasan jumlah tenaga kesehatan medis, terutama perawat, dibandingkan dengan kepadatan penduduk setempat.", "data_quality_status": "COMPLETE" }, "geometry": { "type": "Polygon", "coordinates": [ [ [ 112.58, -7.236666666666666 ], [ 112.62, -7.236666666666666 ], [ 112.62, -7.208333333333333 ], [ 112.58, -7.208333333333333 ], [ 112.58, -7.236666666666666 ] ] ] } },
{ "type": "Feature", "properties": { "kecamatan": "TANDES", "healthcare_gap_score": 70.566310879150237, "priority_category": "Sangat Tinggi", "priority_rank": 3, "demand_score": 0.56725335605996086, "workforce_gap": 0.92398958739505632, "facility_gap": 0.67623475619670947, "disease_need_score": 0.61521637257827655, "accessibility_gap": 0.0, "primary_root_cause": "WORKFORCE_SHORTAGE", "secondary_root_cause": "FACILITY_SHORTAGE", "tertiary_root_cause": "DISEASE_BURDEN", "root_cause_type": "SINGLE_FACTOR", "root_cause_confidence": "HIGH", "root_cause_margin": 0.24775483119834685, "workforce_issue": "Low Nurse Ratio", "facility_issue": "Low Bed Capacity", "demand_issue": "High Service Pressure", "disease_issue": "Penyakit pada sistem pernafasan (14979 cases)", "accessibility_issue": "NOT_AVAILABLE", "explanation": "Kecamatan Tandes memiliki Healthcare Gap Score sebesar 70.6 dan termasuk kategori Sangat Tinggi. Faktor kontributor utama adalah: 1. Workforce Shortage Gap (0.92), 2. Facility Capacity Gap (0.68), 3. Disease Burden Need (0.62). Indikator paling menonjol dalam model adalah Low Nurse Ratio, dengan sub-skor 0.92. Temuan ini menunjukkan adanya indikasi keterbatasan jumlah tenaga kesehatan medis, terutama perawat, dibandingkan dengan kepadatan penduduk setempat.", "data_quality_status": "COMPLETE" }, "geometry": { "type": "Polygon", "coordinates": [ [ [ 112.62, -7.236666666666666 ], [ 112.66, -7.236666666666666 ], [ 112.66, -7.208333333333333 ], [ 112.62, -7.208333333333333 ], [ 112.62, -7.236666666666666 ] ] ] } },
{ "type": "Feature", "properties": { "kecamatan": "TEGALSARI", "healthcare_gap_score": 52.565464945595551, "priority_category": "Tinggi", "priority_rank": 16, "demand_score": 0.35767704302887565, "workforce_gap": 0.79162216623100878, "facility_gap": 0.58974306702502266, "disease_need_score": 0.31458136636492834, "accessibility_gap": 0.0, "primary_root_cause": "WORKFORCE_SHORTAGE", "secondary_root_cause": "FACILITY_SHORTAGE", "tertiary_root_cause": "HIGH_DEMAND", "root_cause_type": "NO_DOMINANT_ROOT_CAUSE", "root_cause_confidence": "MEDIUM", "root_cause_margin": 0.20187909920598612, "workforce_issue": "Low Midwife Ratio", "facility_issue": "Low Bed Capacity", "demand_issue": "High Service Pressure", "disease_issue": "Penyakit pada sistem pernafasan (12548 cases)", "accessibility_issue": "NOT_AVAILABLE", "explanation": "Kecamatan Tegalsari memiliki Healthcare Gap Score sebesar 52.6 dan termasuk kategori Tinggi. Faktor kontributor utama adalah: 1. Workforce Shortage Gap (0.79), 2. Facility Capacity Gap (0.59), 3. High Demand Score (0.36). Indikator paling menonjol dalam model adalah Low Midwife Ratio, dengan sub-skor 0.79. Temuan ini menunjukkan adanya indikasi keterbatasan jumlah tenaga kesehatan medis, terutama perawat, dibandingkan dengan kepadatan penduduk setempat.", "data_quality_status": "COMPLETE" }, "geometry": { "type": "Polygon", "coordinates": [ [ [ 112.66, -7.236666666666666 ], [ 112.7, -7.236666666666666 ], [ 112.7, -7.208333333333333 ], [ 112.66, -7.208333333333333 ], [ 112.66, -7.236666666666666 ] ] ] } },
{ "type": "Feature", "properties": { "kecamatan": "TENGGILIS MEJOYO", "healthcare_gap_score": 43.953046025736754, "priority_category": "Tinggi", "priority_rank": 26, "demand_score": 0.22022181281843009, "workforce_gap": 0.61431709575960447, "facility_gap": 0.67631565471062183, "disease_need_score": 0.26952828370916404, "accessibility_gap": 0.0, "primary_root_cause": "FACILITY_SHORTAGE", "secondary_root_cause": "WORKFORCE_SHORTAGE", "tertiary_root_cause": "DISEASE_BURDEN", "root_cause_type": "NO_DOMINANT_ROOT_CAUSE", "root_cause_confidence": "MEDIUM", "root_cause_margin": 0.061998558951017357, "workforce_issue": "Low Nurse Ratio", "facility_issue": "Low Bed Capacity", "demand_issue": "High Service Pressure", "disease_issue": "Penyakit pada sistem pernafasan (7490 cases)", "accessibility_issue": "NOT_AVAILABLE", "explanation": "Kecamatan Tenggilis Mejoyo memiliki Healthcare Gap Score sebesar 44.0 dan termasuk kategori Tinggi. Faktor kontributor utama adalah: 1. Facility Capacity Gap (0.68), 2. Workforce Shortage Gap (0.61), 3. Disease Burden Need (0.27). Indikator paling menonjol dalam model adalah Low Bed Capacity, dengan sub-skor 0.68. Temuan ini menunjukkan adanya indikasi kurangnya ketersediaan fasilitas pelayanan kesehatan tingkat pertama (Puskesmas/Pustu) atau kapasitas tempat tidur rawat inap.", "data_quality_status": "COMPLETE" }, "geometry": { "type": "Polygon", "coordinates": [ [ [ 112.7, -7.236666666666666 ], [ 112.74, -7.236666666666666 ], [ 112.74, -7.208333333333333 ], [ 112.7, -7.208333333333333 ], [ 112.7, -7.236666666666666 ] ] ] } },
{ "type": "Feature", "properties": { "kecamatan": "WIYUNG", "healthcare_gap_score": 50.860254823063066, "priority_category": "Tinggi", "priority_rank": 20, "demand_score": 0.4876610966349888, "workforce_gap": 0.48644639158442865, "facility_gap": 0.56615828203299012, "disease_need_score": 0.51569322679103669, "accessibility_gap": 0.0, "primary_root_cause": "FACILITY_SHORTAGE", "secondary_root_cause": "DISEASE_BURDEN", "tertiary_root_cause": "HIGH_DEMAND", "root_cause_type": "NO_DOMINANT_ROOT_CAUSE", "root_cause_confidence": "MEDIUM", "root_cause_margin": 0.050465055241953438, "workforce_issue": "Low Nakes Ratio", "facility_issue": "Low Bed Capacity", "demand_issue": "High Service Pressure", "disease_issue": "Faktor-faktor yang mempengaruhi status kesehatan dan hubungannya dengan jasa kesehatan (15180 cases)", "accessibility_issue": "NOT_AVAILABLE", "explanation": "Kecamatan Wiyung memiliki Healthcare Gap Score sebesar 50.9 dan termasuk kategori Tinggi. Faktor kontributor utama adalah: 1. Facility Capacity Gap (0.57), 2. Disease Burden Need (0.52), 3. High Demand Score (0.49). Indikator paling menonjol dalam model adalah Low Bed Capacity, dengan sub-skor 0.57. Temuan ini menunjukkan adanya indikasi kurangnya ketersediaan fasilitas pelayanan kesehatan tingkat pertama (Puskesmas/Pustu) atau kapasitas tempat tidur rawat inap.", "data_quality_status": "COMPLETE" }, "geometry": { "type": "Polygon", "coordinates": [ [ [ 112.74, -7.236666666666666 ], [ 112.78, -7.236666666666666 ], [ 112.78, -7.208333333333333 ], [ 112.74, -7.208333333333333 ], [ 112.74, -7.236666666666666 ] ] ] } },
{ "type": "Feature", "properties": { "kecamatan": "WONOCOLO", "healthcare_gap_score": 62.319035005710489, "priority_category": "Sangat Tinggi", "priority_rank": 10, "demand_score": 0.6703267673588551, "workforce_gap": 0.68069806834208801, "facility_gap": 0.38592352547970199, "disease_need_score": 0.70349097125440796, "accessibility_gap": 0.0, "primary_root_cause": "DISEASE_BURDEN", "secondary_root_cause": "WORKFORCE_SHORTAGE", "tertiary_root_cause": "HIGH_DEMAND", "root_cause_type": "NO_DOMINANT_ROOT_CAUSE", "root_cause_confidence": "MEDIUM", "root_cause_margin": 0.022792902912319946, "workforce_issue": "Low Nurse Ratio", "facility_issue": "Low Bed Capacity", "demand_issue": "High Service Pressure", "disease_issue": "Penyakit pada sistem pernafasan (18158 cases)", "accessibility_issue": "NOT_AVAILABLE", "explanation": "Kecamatan Wonocolo memiliki Healthcare Gap Score sebesar 62.3 dan termasuk kategori Sangat Tinggi. Faktor kontributor utama adalah: 1. Disease Burden Need (0.70), 2. Workforce Shortage Gap (0.68), 3. High Demand Score (0.67). Indikator paling menonjol dalam model adalah High caseload of Penyakit pada sistem pernafasan, dengan sub-skor 0.70. Temuan ini menunjukkan adanya indikasi besarnya prevalensi kasus penyakit masyarakat (terutama ISPA) yang memerlukan intervensi preventif dan promotif.", "data_quality_status": "COMPLETE" }, "geometry": { "type": "Polygon", "coordinates": [ [ [ 112.78, -7.236666666666666 ], [ 112.82, -7.236666666666666 ], [ 112.82, -7.208333333333333 ], [ 112.78, -7.208333333333333 ], [ 112.78, -7.236666666666666 ] ] ] } },
{ "type": "Feature", "properties": { "kecamatan": "WONOKROMO", "healthcare_gap_score": 41.791330823197093, "priority_category": "Tinggi", "priority_rank": 27, "demand_score": 0.55990746692530635, "workforce_gap": 0.13391320931204065, "facility_gap": 0.65732341857339882, "disease_need_score": 0.39151210823043547, "accessibility_gap": 0.0, "primary_root_cause": "FACILITY_SHORTAGE", "secondary_root_cause": "HIGH_DEMAND", "tertiary_root_cause": "DISEASE_BURDEN", "root_cause_type": "NO_DOMINANT_ROOT_CAUSE", "root_cause_confidence": "MEDIUM", "root_cause_margin": 0.097415951648092469, "workforce_issue": "Low Nakes Ratio", "facility_issue": "Low Puskesmas Ratio", "demand_issue": "High Service Pressure", "disease_issue": "Penyakit pada sistem pencernaan (19746 cases)", "accessibility_issue": "NOT_AVAILABLE", "explanation": "Kecamatan Wonokromo memiliki Healthcare Gap Score sebesar 41.8 dan termasuk kategori Tinggi. Faktor kontributor utama adalah: 1. Facility Capacity Gap (0.66), 2. High Demand Score (0.56), 3. Disease Burden Need (0.39). Indikator paling menonjol dalam model adalah Low Puskesmas Ratio, dengan sub-skor 0.66. Temuan ini menunjukkan adanya indikasi kurangnya ketersediaan fasilitas pelayanan kesehatan tingkat pertama (Puskesmas/Pustu) atau kapasitas tempat tidur rawat inap.", "data_quality_status": "COMPLETE" }, "geometry": { "type": "Polygon", "coordinates": [ [ [ 112.58, -7.208333333333333 ], [ 112.62, -7.208333333333333 ], [ 112.62, -7.18 ], [ 112.58, -7.18 ], [ 112.58, -7.208333333333333 ] ] ] } }
]
}
