{
  "type": "FeatureCollection",
  "features": [
    {
      "type": "Feature",
      "properties": {
        "kecamatan": "Asemrowo"
      },
      "geometry": {
        "type": "Polygon",
        "coordinates": [
          [
            [
              112.58,
              -7.35
            ],
            [
              112.62,
              -7.35
            ],
            [
              112.62,
              -7.321666666666666
            ],
            [
              112.58,
              -7.321666666666666
            ],
            [
              112.58,
              -7.35
            ]
          ]
        ]
      }
    },
    {
      "type": "Feature",
      "properties": {
        "kecamatan": "Benowo"
      },
      "geometry": {
        "type": "Polygon",
        "coordinates": [
          [
            [
              112.62,
              -7.35
            ],
            [
              112.66,
              -7.35
            ],
            [
              112.66,
              -7.321666666666666
            ],
            [
              112.62,
              -7.321666666666666
            ],
            [
              112.62,
              -7.35
            ]
          ]
        ]
      }
    },
    {
      "type": "Feature",
      "properties": {
        "kecamatan": "Bubutan"
      },
      "geometry": {
        "type": "Polygon",
        "coordinates": [
          [
            [
              112.66,
              -7.35
            ],
            [
              112.69999999999999,
              -7.35
            ],
            [
              112.69999999999999,
              -7.321666666666666
            ],
            [
              112.66,
              -7.321666666666666
            ],
            [
              112.66,
              -7.35
            ]
          ]
        ]
      }
    },
    {
      "type": "Feature",
      "properties": {
        "kecamatan": "Bulak"
      },
      "geometry": {
        "type": "Polygon",
        "coordinates": [
          [
            [
              112.69999999999999,
              -7.35
            ],
            [
              112.73999999999998,
              -7.35
            ],
            [
              112.73999999999998,
              -7.321666666666666
            ],
            [
              112.69999999999999,
              -7.321666666666666
            ],
            [
              112.69999999999999,
              -7.35
            ]
          ]
        ]
      }
    },
    {
      "type": "Feature",
      "properties": {
        "kecamatan": "Dukuh Pakis"
      },
      "geometry": {
        "type": "Polygon",
        "coordinates": [
          [
            [
              112.74,
              -7.35
            ],
            [
              112.78,
              -7.35
            ],
            [
              112.78,
              -7.321666666666666
            ],
            [
              112.74,
              -7.321666666666666
            ],
            [
              112.74,
              -7.35
            ]
          ]
        ]
      }
    },
    {
      "type": "Feature",
      "properties": {
        "kecamatan": "Gayungan"
      },
      "geometry": {
        "type": "Polygon",
        "coordinates": [
          [
            [
              112.78,
              -7.35
            ],
            [
              112.82,
              -7.35
            ],
            [
              112.82,
              -7.321666666666666
            ],
            [
              112.78,
              -7.321666666666666
            ],
            [
              112.78,
              -7.35
            ]
          ]
        ]
      }
    },
    {
      "type": "Feature",
      "properties": {
        "kecamatan": "Genteng"
      },
      "geometry": {
        "type": "Polygon",
        "coordinates": [
          [
            [
              112.58,
              -7.321666666666666
            ],
            [
              112.62,
              -7.321666666666666
            ],
            [
              112.62,
              -7.293333333333333
            ],
            [
              112.58,
              -7.293333333333333
            ],
            [
              112.58,
              -7.321666666666666
            ]
          ]
        ]
      }
    },
    {
      "type": "Feature",
      "properties": {
        "kecamatan": "Gubeng"
      },
      "geometry": {
        "type": "Polygon",
        "coordinates": [
          [
            [
              112.62,
              -7.321666666666666
            ],
            [
              112.66,
              -7.321666666666666
            ],
            [
              112.66,
              -7.293333333333333
            ],
            [
              112.62,
              -7.293333333333333
            ],
            [
              112.62,
              -7.321666666666666
            ]
          ]
        ]
      }
    },
    {
      "type": "Feature",
      "properties": {
        "kecamatan": "Gunung Anyar"
      },
      "geometry": {
        "type": "Polygon",
        "coordinates": [
          [
            [
              112.66,
              -7.321666666666666
            ],
            [
              112.69999999999999,
              -7.321666666666666
            ],
            [
              112.69999999999999,
              -7.293333333333333
            ],
            [
              112.66,
              -7.293333333333333
            ],
            [
              112.66,
              -7.321666666666666
            ]
          ]
        ]
      }
    },
    {
      "type": "Feature",
      "properties": {
        "kecamatan": "Jambangan"
      },
      "geometry": {
        "type": "Polygon",
        "coordinates": [
          [
            [
              112.69999999999999,
              -7.321666666666666
            ],
            [
              112.73999999999998,
              -7.321666666666666
            ],
            [
              112.73999999999998,
              -7.293333333333333
            ],
            [
              112.69999999999999,
              -7.293333333333333
            ],
            [
              112.69999999999999,
              -7.321666666666666
            ]
          ]
        ]
      }
    },
    {
      "type": "Feature",
      "properties": {
        "kecamatan": "Karang Pilang"
      },
      "geometry": {
        "type": "Polygon",
        "coordinates": [
          [
            [
              112.74,
              -7.321666666666666
            ],
            [
              112.78,
              -7.321666666666666
            ],
            [
              112.78,
              -7.293333333333333
            ],
            [
              112.74,
              -7.293333333333333
            ],
            [
              112.74,
              -7.321666666666666
            ]
          ]
        ]
      }
    },
    {
      "type": "Feature",
      "properties": {
        "kecamatan": "Kenjeran"
      },
      "geometry": {
        "type": "Polygon",
        "coordinates": [
          [
            [
              112.78,
              -7.321666666666666
            ],
            [
              112.82,
              -7.321666666666666
            ],
            [
              112.82,
              -7.293333333333333
            ],
            [
              112.78,
              -7.293333333333333
            ],
            [
              112.78,
              -7.321666666666666
            ]
          ]
        ]
      }
    },
    {
      "type": "Feature",
      "properties": {
        "kecamatan": "Krembangan"
      },
      "geometry": {
        "type": "Polygon",
        "coordinates": [
          [
            [
              112.58,
              -7.293333333333333
            ],
            [
              112.62,
              -7.293333333333333
            ],
            [
              112.62,
              -7.265
            ],
            [
              112.58,
              -7.265
            ],
            [
              112.58,
              -7.293333333333333
            ]
          ]
        ]
      }
    },
    {
      "type": "Feature",
      "properties": {
        "kecamatan": "Lakarsantri"
      },
      "geometry": {
        "type": "Polygon",
        "coordinates": [
          [
            [
              112.62,
              -7.293333333333333
            ],
            [
              112.66,
              -7.293333333333333
            ],
            [
              112.66,
              -7.265
            ],
            [
              112.62,
              -7.265
            ],
            [
              112.62,
              -7.293333333333333
            ]
          ]
        ]
      }
    },
    {
      "type": "Feature",
      "properties": {
        "kecamatan": "Mulyorejo"
      },
      "geometry": {
        "type": "Polygon",
        "coordinates": [
          [
            [
              112.66,
              -7.293333333333333
            ],
            [
              112.69999999999999,
              -7.293333333333333
            ],
            [
              112.69999999999999,
              -7.265
            ],
            [
              112.66,
              -7.265
            ],
            [
              112.66,
              -7.293333333333333
            ]
          ]
        ]
      }
    },
    {
      "type": "Feature",
      "properties": {
        "kecamatan": "Pabean Cantian"
      },
      "geometry": {
        "type": "Polygon",
        "coordinates": [
          [
            [
              112.69999999999999,
              -7.293333333333333
            ],
            [
              112.73999999999998,
              -7.293333333333333
            ],
            [
              112.73999999999998,
              -7.265
            ],
            [
              112.69999999999999,
              -7.265
            ],
            [
              112.69999999999999,
              -7.293333333333333
            ]
          ]
        ]
      }
    },
    {
      "type": "Feature",
      "properties": {
        "kecamatan": "Pakal"
      },
      "geometry": {
        "type": "Polygon",
        "coordinates": [
          [
            [
              112.74,
              -7.293333333333333
            ],
            [
              112.78,
              -7.293333333333333
            ],
            [
              112.78,
              -7.265
            ],
            [
              112.74,
              -7.265
            ],
            [
              112.74,
              -7.293333333333333
            ]
          ]
        ]
      }
    },
    {
      "type": "Feature",
      "properties": {
        "kecamatan": "Rungkut"
      },
      "geometry": {
        "type": "Polygon",
        "coordinates": [
          [
            [
              112.78,
              -7.293333333333333
            ],
            [
              112.82,
              -7.293333333333333
            ],
            [
              112.82,
              -7.265
            ],
            [
              112.78,
              -7.265
            ],
            [
              112.78,
              -7.293333333333333
            ]
          ]
        ]
      }
    },
    {
      "type": "Feature",
      "properties": {
        "kecamatan": "Sambikerep"
      },
      "geometry": {
        "type": "Polygon",
        "coordinates": [
          [
            [
              112.58,
              -7.265
            ],
            [
              112.62,
              -7.265
            ],
            [
              112.62,
              -7.236666666666666
            ],
            [
              112.58,
              -7.236666666666666
            ],
            [
              112.58,
              -7.265
            ]
          ]
        ]
      }
    },
    {
      "type": "Feature",
      "properties": {
        "kecamatan": "Sawahan"
      },
      "geometry": {
        "type": "Polygon",
        "coordinates": [
          [
            [
              112.62,
              -7.265
            ],
            [
              112.66,
              -7.265
            ],
            [
              112.66,
              -7.236666666666666
            ],
            [
              112.62,
              -7.236666666666666
            ],
            [
              112.62,
              -7.265
            ]
          ]
        ]
      }
    },
    {
      "type": "Feature",
      "properties": {
        "kecamatan": "Semampir"
      },
      "geometry": {
        "type": "Polygon",
        "coordinates": [
          [
            [
              112.66,
              -7.265
            ],
            [
              112.69999999999999,
              -7.265
            ],
            [
              112.69999999999999,
              -7.236666666666666
            ],
            [
              112.66,
              -7.236666666666666
            ],
            [
              112.66,
              -7.265
            ]
          ]
        ]
      }
    },
    {
      "type": "Feature",
      "properties": {
        "kecamatan": "Simokerto"
      },
      "geometry": {
        "type": "Polygon",
        "coordinates": [
          [
            [
              112.69999999999999,
              -7.265
            ],
            [
              112.73999999999998,
              -7.265
            ],
            [
              112.73999999999998,
              -7.236666666666666
            ],
            [
              112.69999999999999,
              -7.236666666666666
            ],
            [
              112.69999999999999,
              -7.265
            ]
          ]
        ]
      }
    },
    {
      "type": "Feature",
      "properties": {
        "kecamatan": "Suko Manunggal"
      },
      "geometry": {
        "type": "Polygon",
        "coordinates": [
          [
            [
              112.74,
              -7.265
            ],
            [
              112.78,
              -7.265
            ],
            [
              112.78,
              -7.236666666666666
            ],
            [
              112.74,
              -7.236666666666666
            ],
            [
              112.74,
              -7.265
            ]
          ]
        ]
      }
    },
    {
      "type": "Feature",
      "properties": {
        "kecamatan": "Sukolilo"
      },
      "geometry": {
        "type": "Polygon",
        "coordinates": [
          [
            [
              112.78,
              -7.265
            ],
            [
              112.82,
              -7.265
            ],
            [
              112.82,
              -7.236666666666666
            ],
            [
              112.78,
              -7.236666666666666
            ],
            [
              112.78,
              -7.265
            ]
          ]
        ]
      }
    },
    {
      "type": "Feature",
      "properties": {
        "kecamatan": "Tambaksari"
      },
      "geometry": {
        "type": "Polygon",
        "coordinates": [
          [
            [
              112.58,
              -7.236666666666666
            ],
            [
              112.62,
              -7.236666666666666
            ],
            [
              112.62,
              -7.208333333333333
            ],
            [
              112.58,
              -7.208333333333333
            ],
            [
              112.58,
              -7.236666666666666
            ]
          ]
        ]
      }
    },
    {
      "type": "Feature",
      "properties": {
        "kecamatan": "Tandes"
      },
      "geometry": {
        "type": "Polygon",
        "coordinates": [
          [
            [
              112.62,
              -7.236666666666666
            ],
            [
              112.66,
              -7.236666666666666
            ],
            [
              112.66,
              -7.208333333333333
            ],
            [
              112.62,
              -7.208333333333333
            ],
            [
              112.62,
              -7.236666666666666
            ]
          ]
        ]
      }
    },
    {
      "type": "Feature",
      "properties": {
        "kecamatan": "Tegalsari"
      },
      "geometry": {
        "type": "Polygon",
        "coordinates": [
          [
            [
              112.66,
              -7.236666666666666
            ],
            [
              112.69999999999999,
              -7.236666666666666
            ],
            [
              112.69999999999999,
              -7.208333333333333
            ],
            [
              112.66,
              -7.208333333333333
            ],
            [
              112.66,
              -7.236666666666666
            ]
          ]
        ]
      }
    },
    {
      "type": "Feature",
      "properties": {
        "kecamatan": "Tenggilis Mejoyo"
      },
      "geometry": {
        "type": "Polygon",
        "coordinates": [
          [
            [
              112.69999999999999,
              -7.236666666666666
            ],
            [
              112.73999999999998,
              -7.236666666666666
            ],
            [
              112.73999999999998,
              -7.208333333333333
            ],
            [
              112.69999999999999,
              -7.208333333333333
            ],
            [
              112.69999999999999,
              -7.236666666666666
            ]
          ]
        ]
      }
    },
    {
      "type": "Feature",
      "properties": {
        "kecamatan": "Wiyung"
      },
      "geometry": {
        "type": "Polygon",
        "coordinates": [
          [
            [
              112.74,
              -7.236666666666666
            ],
            [
              112.78,
              -7.236666666666666
            ],
            [
              112.78,
              -7.208333333333333
            ],
            [
              112.74,
              -7.208333333333333
            ],
            [
              112.74,
              -7.236666666666666
            ]
          ]
        ]
      }
    },
    {
      "type": "Feature",
      "properties": {
        "kecamatan": "Wonocolo"
      },
      "geometry": {
        "type": "Polygon",
        "coordinates": [
          [
            [
              112.78,
              -7.236666666666666
            ],
            [
              112.82,
              -7.236666666666666
            ],
            [
              112.82,
              -7.208333333333333
            ],
            [
              112.78,
              -7.208333333333333
            ],
            [
              112.78,
              -7.236666666666666
            ]
          ]
        ]
      }
    },
    {
      "type": "Feature",
      "properties": {
        "kecamatan": "Wonokromo"
      },
      "geometry": {
        "type": "Polygon",
        "coordinates": [
          [
            [
              112.58,
              -7.208333333333333
            ],
            [
              112.62,
              -7.208333333333333
            ],
            [
              112.62,
              -7.18
            ],
            [
              112.58,
              -7.18
            ],
            [
              112.58,
              -7.208333333333333
            ]
          ]
        ]
      }
    }
  ]
}