{
  "type": "FeatureCollection",
  "features": [
    {
      "type": "Feature",
      "properties": {
        "road_id": "RD001",
        "road_name": "Jalan Penghubung Asemrowo-Benowo",
        "type": "Kolektor"
      },
      "geometry": {
        "type": "LineString",
        "coordinates": [
          [
            112.71525804999999,
            -7.252032450000001
          ],
          [
            112.71459173285606,
            -7.251351721656378
          ]
        ]
      }
    },
    {
      "type": "Feature",
      "properties": {
        "road_id": "RD002",
        "road_name": "Jalan Penghubung Benowo-Bubutan",
        "type": "Kolektor"
      },
      "geometry": {
        "type": "LineString",
        "coordinates": [
          [
            112.6354085,
            -7.24878885
          ],
          [
            112.63467948758603,
            -7.248069778189489
          ]
        ]
      }
    },
    {
      "type": "Feature",
      "properties": {
        "road_id": "RD003",
        "road_name": "Jalan Penghubung Bubutan-Bulak",
        "type": "Kolektor"
      },
      "geometry": {
        "type": "LineString",
        "coordinates": [
          [
            112.73481876662613,
            -7.251117849324903
          ],
          [
            112.73489635965377,
            -7.250788386169305
          ]
        ]
      }
    },
    {
      "type": "Feature",
      "properties": {
        "road_id": "RD004",
        "road_name": "Jalan Penghubung Bulak-Dukuh Pakis",
        "type": "Kolektor"
      },
      "geometry": {
        "type": "LineString",
        "coordinates": [
          [
            112.7854941,
            -7.23163555
          ],
          [
            112.78512637264829,
            -7.231196337366061
          ]
        ]
      }
    },
    {
      "type": "Feature",
      "properties": {
        "road_id": "RD005",
        "road_name": "Jalan Penghubung Dukuh Pakis-Gayungan",
        "type": "Kolektor"
      },
      "geometry": {
        "type": "LineString",
        "coordinates": [
          [
            112.70814545,
            -7.2820999
          ],
          [
            112.70815866455489,
            -7.282594970619328
          ]
        ]
      }
    },
    {
      "type": "Feature",
      "properties": {
        "road_id": "RD006",
        "road_name": "Jalan Penghubung Gayungan-Genteng",
        "type": "Kolektor"
      },
      "geometry": {
        "type": "LineString",
        "coordinates": [
          [
            112.78644512612317,
            -7.23094554809756
          ],
          [
            112.78513833524616,
            -7.23206906225406
          ]
        ]
      }
    },
    {
      "type": "Feature",
      "properties": {
        "road_id": "RD007",
        "road_name": "Jalan Penghubung Genteng-Gubeng",
        "type": "Kolektor"
      },
      "geometry": {
        "type": "LineString",
        "coordinates": [
          [
            112.74246705,
            -7.26684075
          ],
          [
            112.74328002313423,
            -7.267515543643657
          ]
        ]
      }
    },
    {
      "type": "Feature",
      "properties": {
        "road_id": "RD008",
        "road_name": "Jalan Penghubung Gubeng-Gunung Anyar",
        "type": "Kolektor"
      },
      "geometry": {
        "type": "LineString",
        "coordinates": [
          [
            112.76131964999999,
            -7.2979732
          ],
          [
            112.76222715592799,
            -7.2984823152281075
          ]
        ]
      }
    },
    {
      "type": "Feature",
      "properties": {
        "road_id": "RD009",
        "road_name": "Jalan Penghubung Gunung Anyar-Jambangan",
        "type": "Kolektor"
      },
      "geometry": {
        "type": "LineString",
        "coordinates": [
          [
            112.79252115,
            -7.3384485999999995
          ],
          [
            112.79673307394647,
            -7.33872673223739
          ]
        ]
      }
    },
    {
      "type": "Feature",
      "properties": {
        "road_id": "RD010",
        "road_name": "Jalan Penghubung Jambangan-Karang Pilang",
        "type": "Kolektor"
      },
      "geometry": {
        "type": "LineString",
        "coordinates": [
          [
            112.7138846,
            -7.3219039
          ],
          [
            112.71343772205459,
            -7.32284890137141
          ]
        ]
      }
    },
    {
      "type": "Feature",
      "properties": {
        "road_id": "RD011",
        "road_name": "Jalan Penghubung Karang Pilang-Kenjeran",
        "type": "Kolektor"
      },
      "geometry": {
        "type": "LineString",
        "coordinates": [
          [
            112.69938429999999,
            -7.3333987
          ],
          [
            112.69876541675265,
            -7.3342833337397
          ]
        ]
      }
    },
    {
      "type": "Feature",
      "properties": {
        "road_id": "RD012",
        "road_name": "Jalan Penghubung Kenjeran-Krembangan",
        "type": "Kolektor"
      },
      "geometry": {
        "type": "LineString",
        "coordinates": [
          [
            112.7139812083148,
            -7.322726053875758
          ],
          [
            112.71406996777193,
            -7.321898494483743
          ]
        ]
      }
    },
    {
      "type": "Feature",
      "properties": {
        "road_id": "RD013",
        "road_name": "Jalan Penghubung Krembangan-Lakarsantri",
        "type": "Kolektor"
      },
      "geometry": {
        "type": "LineString",
        "coordinates": [
          [
            112.7226026,
            -7.2329093
          ],
          [
            112.72179265511936,
            -7.231959231607959
          ]
        ]
      }
    },
    {
      "type": "Feature",
      "properties": {
        "road_id": "RD014",
        "road_name": "Jalan Penghubung Lakarsantri-Mulyorejo",
        "type": "Kolektor"
      },
      "geometry": {
        "type": "LineString",
        "coordinates": [
          [
            112.6329854,
            -7.304299250000001
          ],
          [
            112.63264024652267,
            -7.303801668548013
          ]
        ]
      }
    },
    {
      "type": "Feature",
      "properties": {
        "road_id": "RD015",
        "road_name": "Jalan Penghubung Mulyorejo-Pabean Cantian",
        "type": "Kolektor"
      },
      "geometry": {
        "type": "LineString",
        "coordinates": [
          [
            112.78482475000001,
            -7.2612362500000005
          ],
          [
            112.7856722163782,
            -7.2610558660154885
          ]
        ]
      }
    },
    {
      "type": "Feature",
      "properties": {
        "road_id": "RD016",
        "road_name": "Jalan Penghubung Pabean Cantian-Pakal",
        "type": "Kolektor"
      },
      "geometry": {
        "type": "LineString",
        "coordinates": [
          [
            112.72933795,
            -7.2167683
          ],
          [
            112.7284878491245,
            -7.216888753887875
          ]
        ]
      }
    },
    {
      "type": "Feature",
      "properties": {
        "road_id": "RD017",
        "road_name": "Jalan Penghubung Pakal-Rungkut",
        "type": "Kolektor"
      },
      "geometry": {
        "type": "LineString",
        "coordinates": [
          [
            112.62544555,
            -7.23999285
          ],
          [
            112.62451749227337,
            -7.239685514836157
          ]
        ]
      }
    },
    {
      "type": "Feature",
      "properties": {
        "road_id": "RD018",
        "road_name": "Jalan Penghubung Rungkut-Sambikerep",
        "type": "Kolektor"
      },
      "geometry": {
        "type": "LineString",
        "coordinates": [
          [
            112.72898182491296,
            -7.216293091456167
          ],
          [
            112.73029007018933,
            -7.2176595609266325
          ]
        ]
      }
    },
    {
      "type": "Feature",
      "properties": {
        "road_id": "RD019",
        "road_name": "Jalan Penghubung Sambikerep-Sawahan",
        "type": "Kolektor"
      },
      "geometry": {
        "type": "LineString",
        "coordinates": [
          [
            112.6552969,
            -7.2658873
          ],
          [
            112.65619350840274,
            -7.266157825281745
          ]
        ]
      }
    },
    {
      "type": "Feature",
      "properties": {
        "road_id": "RD020",
        "road_name": "Jalan Penghubung Sawahan-Semampir",
        "type": "Kolektor"
      },
      "geometry": {
        "type": "LineString",
        "coordinates": [
          [
            112.71616485,
            -7.2840657
          ],
          [
            112.71688821254175,
            -7.284858671894169
          ]
        ]
      }
    },
    {
      "type": "Feature",
      "properties": {
        "road_id": "RD021",
        "road_name": "Jalan Penghubung Semampir-Simokerto",
        "type": "Kolektor"
      },
      "geometry": {
        "type": "LineString",
        "coordinates": [
          [
            112.7458149,
            -7.2259252499999995
          ],
          [
            112.74566535115856,
            -7.225306495621541
          ]
        ]
      }
    },
    {
      "type": "Feature",
      "properties": {
        "road_id": "RD022",
        "road_name": "Jalan Penghubung Simokerto-Suko Manunggal",
        "type": "Kolektor"
      },
      "geometry": {
        "type": "LineString",
        "coordinates": [
          [
            112.75790144999999,
            -7.24375495
          ],
          [
            112.7570448412387,
            -7.243279723363548
          ]
        ]
      }
    },
    {
      "type": "Feature",
      "properties": {
        "road_id": "RD023",
        "road_name": "Jalan Penghubung Suko Manunggal-Sukolilo",
        "type": "Kolektor"
      },
      "geometry": {
        "type": "LineString",
        "coordinates": [
          [
            112.71228439999999,
            -7.260940649999999
          ],
          [
            112.71286325778337,
            -7.2613741342294285
          ]
        ]
      }
    },
    {
      "type": "Feature",
      "properties": {
        "road_id": "RD024",
        "road_name": "Jalan Penghubung Sukolilo-Tambaksari",
        "type": "Kolektor"
      },
      "geometry": {
        "type": "LineString",
        "coordinates": [
          [
            112.75784701773814,
            -7.244486345490428
          ],
          [
            112.75778749469413,
            -7.243701948816607
          ]
        ]
      }
    },
    {
      "type": "Feature",
      "properties": {
        "road_id": "RD025",
        "road_name": "Jalan Penghubung Tambaksari-Tandes",
        "type": "Kolektor"
      },
      "geometry": {
        "type": "LineString",
        "coordinates": [
          [
            112.7552194,
            -7.25751365
          ],
          [
            112.75428960170487,
            -7.257153048852779
          ]
        ]
      }
    },
    {
      "type": "Feature",
      "properties": {
        "road_id": "RD026",
        "road_name": "Jalan Penghubung Tandes-Tegalsari",
        "type": "Kolektor"
      },
      "geometry": {
        "type": "LineString",
        "coordinates": [
          [
            112.67804355000001,
            -7.25904545
          ],
          [
            112.6777691518535,
            -7.258191718913607
          ]
        ]
      }
    },
    {
      "type": "Feature",
      "properties": {
        "road_id": "RD027",
        "road_name": "Jalan Penghubung Tegalsari-Tenggilis Mejoyo",
        "type": "Kolektor"
      },
      "geometry": {
        "type": "LineString",
        "coordinates": [
          [
            112.74053295,
            -7.28794235
          ],
          [
            112.74019328872022,
            -7.2884880560645
          ]
        ]
      }
    },
    {
      "type": "Feature",
      "properties": {
        "road_id": "RD028",
        "road_name": "Jalan Penghubung Tenggilis Mejoyo-Wiyung",
        "type": "Kolektor"
      },
      "geometry": {
        "type": "LineString",
        "coordinates": [
          [
            112.75729875,
            -7.31395895
          ],
          [
            112.7578650356507,
            -7.314765528230845
          ]
        ]
      }
    },
    {
      "type": "Feature",
      "properties": {
        "road_id": "RD029",
        "road_name": "Jalan Penghubung Wiyung-Wonocolo",
        "type": "Kolektor"
      },
      "geometry": {
        "type": "LineString",
        "coordinates": [
          [
            112.6951476,
            -7.31430655
          ],
          [
            112.6947383098153,
            -7.313658122727913
          ]
        ]
      }
    },
    {
      "type": "Feature",
      "properties": {
        "road_id": "RD030",
        "road_name": "Jalan Penghubung Wonocolo-Wonokromo",
        "type": "Kolektor"
      },
      "geometry": {
        "type": "LineString",
        "coordinates": [
          [
            112.75673212650308,
            -7.314677782501766
          ],
          [
            112.75802165511142,
            -7.313237087298652
          ]
        ]
      }
    }
  ]
}